STARLINK-32221          
1 60342U 24136P   26068.28724076 -.00000589  00000+0 -77592-5 0  9997
2 60342  53.1602  77.4827 0001439  81.3445 278.7718 15.30189895 89603
FLOCK 4BE-27            
1 60513U 24149AX  26068.75339182  .00011439  00000+0  36576-3 0  9992
2 60513  97.3862 150.6783 0002732 305.8980  54.2008 15.32593322 86906
