[{"OBJECT_NAME":"STARLINK-32221","OBJECT_ID":"2024-136P","EPOCH":"2026-03-09T06:53:37.601664","MEAN_MOTION":15.30189895,"ECCENTRICITY":0.00014395,"INCLINATION":53.1602,"RA_OF_ASC_NODE":77.4827,"ARG_OF_PERICENTER":81.3445,"MEAN_ANOMALY":278.7718,"EPHEMERIS_TYPE":0,"CLASSIFICATION_TYPE":"U","NORAD_CAT_ID":60342,"ELEMENT_SET_NO":999,"REV_AT_EPOCH":8960,"BSTAR":-7.759244e-6,"MEAN_MOTION_DOT":-5.89e-6,"MEAN_MOTION_DDOT":0},{"OBJECT_NAME":"FLOCK 4BE-27","OBJECT_ID":"2024-149AX","EPOCH":"2026-03-09T18:04:53.053248","MEAN_MOTION":15.32593322,"ECCENTRICITY":0.00027324,"INCLINATION":97.3862,"RA_OF_ASC_NODE":150.6783,"ARG_OF_PERICENTER":305.898,"MEAN_ANOMALY":54.2008,"EPHEMERIS_TYPE":0,"CLASSIFICATION_TYPE":"U","NORAD_CAT_ID":60513,"ELEMENT_SET_NO":999,"REV_AT_EPOCH":8690,"BSTAR":0.00036576028,"MEAN_MOTION_DOT":0.00011439,"MEAN_MOTION_DDOT":0}]
